GLOBALSTAR M001         
1 25162U 98008A   24155.83013959 -.00000109  00000+0 -96935-4 0  9993
2 25162  52.0054 354.4403 0001945 145.0827 227.8514 12.38184516196849
GLOBALSTAR M004         
1 25163U 98008B   24155.69519536 -.00000098  00000+0  30820-4 0  9997
2 25163  51.9979 128.8096 0002771 167.1774   4.2370 12.63360889213843
GLOBALSTAR M002         
1 25164U 98008C   24155.59766581 -.00000104  00000+0 -53347-3 0  9998
2 25164  52.0004 109.4462 0000945 163.4003 196.6848 11.61502703140072
GLOBALSTAR M003         
1 25165U 98008D   24155.70521539  .00000056  00000+0  15554-2 0  9995
2 25165  51.9849 136.7693 0007897 252.4134 278.7224 12.12007554187324
GLOBALSTAR M014         
1 25306U 98023A   24155.92064642 -.00000084  00000+0 -11941-3 0  9990
2 25306  51.9865  39.8139 0001500  40.1924  95.5760 11.65467981147069
GLOBALSTAR M006         
1 25307U 98023B   24155.53224941 -.00000038  00000+0  76415-3 0  9993
2 25307  51.9948  79.1162 0003583 135.5980  35.0313 11.58164909173067
GLOBALSTAR M015         
1 25308U 98023C   24155.92325365 -.00000036  00000+0  85224-3 0  9995
2 25308  51.9781 159.2779 0012377 124.3997 300.0605 11.48852953150608
